#dP2023 12 22  6  0  0.00000000      96 __u+U IGS20 EXT  IAC
## 2293 453600.00000000   900.00000000 60300 0.2500000000000
+  119   C06C07C08C09C10C11C12C13C14C16C19C20C21C22C23C24C25
+        C26C27C28C29C30C32C33C34C35C36C37C38C39C40C41C42C43
+        C44C45C46E02E03E04E05E07E08E09E10E11E12E13E14E15E18
+        E19E21E24E25E26E27E30E31E33E34E36G01G02G03G04G05G07
+        G08G09G10G11G12G13G14G15G16G17G18G19G20G21G22G23G24
+        G25G26G27G28G29G30G31G32J02J03J04R01R02R03R04R05R07
+        R08R09R11R12R13R14R15R16R17R18R19R20R21R22R24R25R26
++        10  9  9 10 10  9  9 10  9 10  8  9  9 10  9  9  9
++        10  9  9  9 10  9  8  9  9  8 10  8 10 10 10 10  9
++        10  9  8  8  8  8  9  8  8  8  9  9  9  9  9  8  8
++         9  9  9  8  9  8  8  9  8  8  8  9  9  9  9  8  8
++         8  9  8  9  8  8  8  8  8  8  9  8  8  9  8  9  8
++         8  8  8  9  8  8  9  9  8  9 10  9  9  8  9  9  9
++         9  9  9  9  8  8 10  9 10  9 10 10  9  8  9 10  8
%c M  cc GPS ccc cccc cccc cccc cccc ccccc ccccc ccccc ccccc
%c cc cc ccc ccc cccc cccc cccc cccc ccccc ccccc ccccc ccccc
%f  0.0000000  0.000000000  0.00000000000  0.000000000000000
%f  0.0000000  0.000000000  0.00000000000  0.000000000000000
%i    0    0    0    0      0      0      0      0         0
%i    0    0    0    0      0      0      0      0         0
/* IAC                                ULTRA-RAPID PREDICTION
/* S/V CLOCKS ARE ALIGNED TO GNSS TIME                      
/* G:C1WC2W R:C1PC2P E:C1XC5X C:C2IC6I J:C1CC2S             
/* PCV:IGS20_2290 OL/AL:FES2004  NONE     YN ORB:CoN CLK:CoN
*  2023 12 22  8  0  0.00000000
PC06 -19098.568282  32706.956131  18245.940040    221.026214
PC07  -3206.700465  38561.409764  17068.832258   -514.125972
PC08  -4070.318188  20071.646416 -36853.582681    164.599185
PC09  -8869.766134  30961.607064  27304.530479   -250.186196
PC10   2580.968584  40793.297953  11763.978634    -62.968578
PC11 -13069.439031  -8280.694840  23301.176130    318.932247
PC12   1959.751165 -22494.655143  16443.449081    818.423147
PC13   1949.728867  22752.571472 -35251.548992    398.654532
PC14 -18090.757535 -17776.254494 -11570.789042   -196.734694
PC16 -20155.626497  32577.390691  17497.535000   -239.404397
PC19  18802.277541   9011.447035  18577.090488   -948.591881
PC20  15246.812336  22963.451728   4443.720595      6.359689
PC21  -2034.694626 -24216.362554  13713.995880   -966.568909
PC22  11762.237093 -10909.259915  22826.790889   -177.124495
PC23 -23642.852059   7955.936942  12514.340584   -800.280049
PC24 -15050.766576 -14243.489453 -18726.668101    716.244984
PC25 -27471.442362  -3304.734168  -3735.891288    283.821450
PC26   4790.470412 -16007.374906 -22368.270790   -223.738554
PC27  -8631.810730  24905.547500  -9161.766448    245.730071
PC28 -18557.089948  19706.467214   6797.997101    186.037956
PC29  18219.535691  -1636.031231 -21074.871921    217.838635
PC30   6633.438615  17358.424599 -20815.095165    -11.116844
PC32   2167.211053  24173.581042 -13766.435133   -545.164903
PC33 -18874.602110  -8982.587100 -18481.941773   -941.776658
PC34  -7797.622166 -16208.597063  21334.046362    330.302342
PC35  17825.985885 -20408.778074  -6757.408971    475.054093
PC36  27182.291700   4440.991279   4457.657860    -83.082034
PC37  -5919.324071  15778.998688  22248.661051   -931.641375
PC38 -13037.998623  19494.416989 -35027.130674    125.622409
PC39 -23032.045823  33220.273975  11594.075021     -6.246546
PC40  -7518.652535  36183.531302  20569.320413    -48.858052
PC41 -12206.528739  10204.237780 -22875.758374   -874.712819
PC42 -14500.220123 -23654.723044  -2842.686708   -477.038160
PC43 -17977.890404    569.108097  21324.917914     53.296384
PC44   7802.623860 -25280.293698   8916.363942    330.354526
PC45  23334.334050  -8124.392748 -12954.365909    -56.997601
PC46  16000.319676  13804.509071  18191.035286   -109.481050
PE02  25261.768247  14805.297616  -4266.156047     88.667563
PE03  15058.438932  11033.541730  22964.258404    -81.787332
PE04 -16420.280935  11656.042097 -21691.712537   -285.775270
PE05   4969.800262  27068.298814  10891.684591   4702.883386
PE07   8368.415007 -27227.433872   8043.751912    -94.343841
PE08  16397.509536 -11011.843974  22039.397932   -196.017065
PE09  -8380.463441  27184.324983  -8200.246622   -271.819074
PE10 -23742.272355  16029.535568  -7464.308522   -588.241982
PE11 -15667.986116  18824.336011 -16617.065720   3272.854775
PE12 -27395.918801  11045.740281   1783.030769   -829.442977
PE13  16324.261685 -18721.323687  16115.127254    -19.734699
PE14  17640.429798  11897.375872 -22811.811691    -11.307978
PE15  27473.354654 -10781.202051  -2289.149728    -76.020040
PE18 -17090.334172   5914.613251  18793.297993    122.860818
PE19 -14041.689447 -13607.400858 -22222.408139   -965.941260
PE21 -14677.693736 -21986.266936 -13330.735740   -570.068028
PE24  -5563.882907  16453.314008  23947.694615   -499.506983
PE25  14339.355221  22004.894561  13641.297463     -1.618619
PE26  -4979.122672 -15459.492905  24758.502425    316.859336
PE27   4984.582501 -16727.933006 -23910.506045   -230.254656
PE30  21683.655759  -1392.405913 -20106.043581   -761.946371
PE31 -21503.807691   1659.696062  20279.975661    -12.197793
PE33 -21981.659562  -3804.746515  19468.994904      4.633315
PE34  22367.397318   3331.394147 -19089.972804    -84.721478
PE36   4187.125115  15590.100037 -24800.278465   -161.126392
PG01  -2683.107342  16235.983891 -21118.983246    164.376771
PG02  -9464.647303  18158.316190 -16292.483106   -512.059349
PG03   4843.146852  18645.991737 -18476.102824     72.434629
PG04   -886.254321  26219.968746   3660.325418    246.022880
PG05   7530.257095 -12922.032664  21771.952952   -155.055629
PG07  13933.566613  10051.957329  20845.534277    -18.118485
PG08  -5284.848966  25266.833486   5136.042069   -158.234100
PG09   8157.750758  21134.512332  13731.809910     34.462261
PG10 -23348.391890  -9828.669440  -8325.319846    -66.299714
PG11  23415.291523 -11965.298666   3567.789234   -510.521475
PG12  -2951.637401 -19103.460754 -18529.946336   -459.992758
PG13  13242.069383 -19239.113438  12237.130429    608.166666
PG14  22888.221189  12636.472970  -5175.995459    277.662244
PG15   2235.294040 -25812.581704   4809.389362    109.421477
PG16 -14315.392802   6968.267073  21008.204334   -399.427577
PG17  13199.630229   8402.017574 -21007.078592    721.541665
PG18 -14848.466182  -8615.082068  20331.813325   -512.710258
PG19  15436.297812  -1240.977107 -21727.641047    415.888473
PG20  18916.529812  -5083.256912  17911.528220    395.407443
PG21 -12623.868592  18067.623053 -13592.440461    140.805346
PG22  21971.954781   8000.321375 -11880.318341     61.684942
PG23 -20443.083938 -16720.626626   3678.178682    120.638965
PG24   8523.919000 -19044.862984 -16595.958998   -398.517034
PG25 -14739.614910 -19598.141627 -10871.248374    482.432931
PG26 -21181.524531   1095.886939  16063.204222    207.178333
PG27 -12627.974640  16534.327860  15993.889702    -86.009404
PG28 -24217.080307   4141.328172 -10106.864049    -76.728717
PG29  -5385.574220 -22212.732104  13398.023974   -609.551281
PG30  21997.971707   2256.695574  15023.533573   -454.601813
PG31 -25047.793342   9357.420652  -1793.167293   -226.780639
PG32 -14751.800916  -4062.866938 -21534.058987   -598.610212
PJ02 -26970.171319  21262.448883  29580.195852     -0.694597
PJ03 -33976.498191  24401.733654   -117.214090    -13.011475
PJ04 -19343.181541  26813.129462 -21118.895302     74.780641
PR01  -3825.558339 -23828.259794   8253.023303     72.725241
PR02 -10800.098092 -21110.329219  -9454.962682    -22.337505
PR03 -12365.109487  -5989.014267 -21462.568574     91.390018
PR04  -6870.395021  11885.314100 -21466.933243    216.401890
PR05   2079.044002  23419.739561  -9845.901159    124.196095
PR07  12227.441769   4938.807417  21861.426325     71.894971
PR08   6807.748041 -12210.415845  21402.718318    -73.760168
PR09  18516.003589  10754.038694  13938.306658    160.113334
PR11  18580.822245  -4193.503726 -16967.267200   -222.823377
PR12   -596.750190 -11352.564711 -22817.432978     34.751605
PR13 -16539.061892 -11306.739206 -15812.658199    -42.522901
PR14 -25022.799280  -4155.649323   2621.756427     25.816274
PR15 -17518.738807   4861.826258  17903.645607     83.758284
PR16    368.834148  11158.876469  22939.766824     21.780622
PR17 -16919.130583   5761.326316  18233.085480     45.655612
PR18 -18758.130624  16776.503765   4025.720942    118.129710
PR19 -12709.074698  19203.312788 -10968.083298   -259.196405
PR20   4427.868620   9995.336164 -23026.766060   -105.557066
PR21  17089.575907  -6082.351399 -17912.838983    -62.898732
PR22  19072.650444 -16698.574727  -2869.906611     99.465213
PR24  -5637.955852  -9725.274026  22920.534336    -36.891976
PR25  17311.785520  -4895.750928 -18063.058738      4.182230
PR26   7078.788465 -11499.925872  21654.908539    -22.804752
EOF
